GLOBALSTAR M035 [-]     
1 25851U 99037A   23280.47687802 -.00000022  00000+0  15678-2 0  9999
2 25851  51.9991 354.7271 0013904  60.8560  29.2644 11.04526102 27893
GLOBALSTAR M032 [-]     
1 25852U 99037B   23280.22699059 -.00000064  00000+0  98559-4 0  9997
2 25852  51.9934 223.1888 0007493 203.0315 157.0150 11.19044885 65498
GLOBALSTAR M051 [-]     
1 25853U 99037C   23280.59953570 -.00000062  00000+0  23244-3 0  9995
2 25853  51.9774  93.1370 0001678 157.2839 202.8046 11.42192729 61702
GLOBALSTAR M030 [-]     
1 25854U 99037D   23280.35600472 -.00000076  00000+0 -31181-4 0  9996
2 25854  51.9876 299.1782 0004372  17.0262 343.0701 11.55092224 78536
GLOBALSTAR M048 [-]     
1 25872U 99041A   23280.52123457 -.00000057  00000+0  34991-3 0  9992
2 25872  51.9405   4.4355 0013414 191.5816 264.3305 11.33839877 54805
GLOBALSTAR M026 [-]     
1 25873U 99041B   23280.60177574 -.00000095  00000+0 -11224-2 0  9997
2 25873  51.9975 118.9309 0001252 357.0646  35.6408 11.06828161 79999
GLOBALSTAR M043 [-]     
1 25874U 99041C   23280.61798346 -.00000062  00000+0  18615-3 0  9990
2 25874  51.9384  87.1958 0012949 340.2051  98.1656 11.25675207 53218
GLOBALSTAR M028 [-]     
1 25875U 99041D   23280.60978968 -.00000087  00000+0  88423-4 0  9992
2 25875  51.9613 237.4843 0063281 167.7824 192.4588 12.50541915112813
